{"fetched_at":"2026-07-17T06:38:20.138Z","source":"https://celestrak.org/NORAD/elements/gp.php?NAME=ICEYE&FORMAT=JSON","constellation":"iceye","records":[{"OBJECT_NAME":"ICEYE-X2","OBJECT_ID":"2018-099AU","EPOCH":"2026-07-16T20:56:44.449152","CLASSIFICATION_TYPE":"U","MEAN_MOTION":15.18050609,"ECCENTRICITY":0.0009951,"INCLINATION":97.4339,"RA_OF_ASC_NODE":251.194,"ARG_OF_PERICENTER":188.691,"MEAN_ANOMALY":171.4154,"EPHEMERIS_TYPE":0,"NORAD_CAT_ID":43800,"ELEMENT_SET_NO":999,"REV_AT_EPOCH":41732,"BSTAR":0.00011297,"MEAN_MOTION_DOT":0.00002235,"MEAN_MOTION_DDOT":0},{"OBJECT_NAME":"ICEYE-X4","OBJECT_ID":"2019-038D","EPOCH":"2026-07-16T19:58:09.896736","CLASSIFICATION_TYPE":"U","MEAN_MOTION":15.29902893,"ECCENTRICITY":0.0013045,"INCLINATION":97.8742,"RA_OF_ASC_NODE":232.4993,"ARG_OF_PERICENTER":192.2213,"MEAN_ANOMALY":167.8712,"EPHEMERIS_TYPE":0,"NORAD_CAT_ID":44390,"ELEMENT_SET_NO":999,"REV_AT_EPOCH":38633,"BSTAR":0.00022673,"MEAN_MOTION_DOT":0.00006496,"MEAN_MOTION_DDOT":0},{"OBJECT_NAME":"ICEYE-X7","OBJECT_ID":"2020-068L","EPOCH":"2026-07-16T20:43:29.792064","CLASSIFICATION_TYPE":"U","MEAN_MOTION":15.32118599,"ECCENTRICITY":0.0006185,"INCLINATION":97.7512,"RA_OF_ASC_NODE":165.7546,"ARG_OF_PERICENTER":205.8836,"MEAN_ANOMALY":154.2096,"EPHEMERIS_TYPE":0,"NORAD_CAT_ID":46496,"ELEMENT_SET_NO":999,"REV_AT_EPOCH":31933,"BSTAR":0.00021086,"MEAN_MOTION_DOT":0.00006457,"MEAN_MOTION_DDOT":0},{"OBJECT_NAME":"ICEYE-X6","OBJECT_ID":"2020-068M","EPOCH":"2026-07-16T22:02:46.455072","CLASSIFICATION_TYPE":"U","MEAN_MOTION":15.04672595,"ECCENTRICITY":0.0007084,"INCLINATION":98.0992,"RA_OF_ASC_NODE":193.016,"ARG_OF_PERICENTER":5.6452,"MEAN_ANOMALY":354.4852,"EPHEMERIS_TYPE":0,"NORAD_CAT_ID":46497,"ELEMENT_SET_NO":999,"REV_AT_EPOCH":31770,"BSTAR":0.00010341,"MEAN_MOTION_DOT":0.00001387,"MEAN_MOTION_DDOT":0},{"OBJECT_NAME":"ICEYE-X21","OBJECT_ID":"2023-001AS","EPOCH":"2026-06-24T05:11:18.420288","CLASSIFICATION_TYPE":"U","MEAN_MOTION":16.24069885,"ECCENTRICITY":0.00123774,"INCLINATION":97.3001,"RA_OF_ASC_NODE":262.6152,"ARG_OF_PERICENTER":285.9702,"MEAN_ANOMALY":74.0225,"EPHEMERIS_TYPE":0,"NORAD_CAT_ID":55049,"ELEMENT_SET_NO":999,"REV_AT_EPOCH":19475,"BSTAR":0.000602142,"MEAN_MOTION_DOT":0.01585954,"MEAN_MOTION_DDOT":0.000002396838},{"OBJECT_NAME":"ICEYE-X25","OBJECT_ID":"2023-084AH","EPOCH":"2026-07-16T20:28:37.606656","CLASSIFICATION_TYPE":"U","MEAN_MOTION":15.62908983,"ECCENTRICITY":0.0004444,"INCLINATION":97.592,"RA_OF_ASC_NODE":346.2107,"ARG_OF_PERICENTER":180.2908,"MEAN_ANOMALY":179.8348,"EPHEMERIS_TYPE":0,"NORAD_CAT_ID":56963,"ELEMENT_SET_NO":999,"REV_AT_EPOCH":17260,"BSTAR":0.00021262,"MEAN_MOTION_DOT":0.00019108,"MEAN_MOTION_DDOT":0},{"OBJECT_NAME":"ICEYE-X31","OBJECT_ID":"2023-174AJ","EPOCH":"2026-07-16T20:48:28.711008","CLASSIFICATION_TYPE":"U","MEAN_MOTION":15.35210269,"ECCENTRICITY":0.000288,"INCLINATION":97.377,"RA_OF_ASC_NODE":273.6164,"ARG_OF_PERICENTER":181.3881,"MEAN_ANOMALY":178.7355,"EPHEMERIS_TYPE":0,"NORAD_CAT_ID":58288,"ELEMENT_SET_NO":999,"REV_AT_EPOCH":14930,"BSTAR":0.00028693,"MEAN_MOTION_DOT":0.0000973,"MEAN_MOTION_DDOT":0},{"OBJECT_NAME":"ICEYE-X34","OBJECT_ID":"2023-174AQ","EPOCH":"2026-07-16T12:44:37.593024","CLASSIFICATION_TYPE":"U","MEAN_MOTION":15.71600116,"ECCENTRICITY":0.0001832,"INCLINATION":97.3859,"RA_OF_ASC_NODE":290.2734,"ARG_OF_PERICENTER":213.2121,"MEAN_ANOMALY":146.9027,"EPHEMERIS_TYPE":0,"NORAD_CAT_ID":58294,"ELEMENT_SET_NO":999,"REV_AT_EPOCH":15034,"BSTAR":0.00092712,"MEAN_MOTION_DOT":0.00120276,"MEAN_MOTION_DDOT":0},{"OBJECT_NAME":"ICEYE-X35","OBJECT_ID":"2023-174AY","EPOCH":"2026-07-16T20:43:28.615296","CLASSIFICATION_TYPE":"U","MEAN_MOTION":15.55286904,"ECCENTRICITY":0.0007593,"INCLINATION":97.3786,"RA_OF_ASC_NODE":283.3147,"ARG_OF_PERICENTER":102.3146,"MEAN_ANOMALY":257.8959,"EPHEMERIS_TYPE":0,"NORAD_CAT_ID":58302,"ELEMENT_SET_NO":999,"REV_AT_EPOCH":14995,"BSTAR":0.00055529,"MEAN_MOTION_DOT":0.00037682,"MEAN_MOTION_DDOT":0},{"OBJECT_NAME":"ICEYE-X38","OBJECT_ID":"2024-043C","EPOCH":"2026-07-16T21:05:20.327136","CLASSIFICATION_TYPE":"U","MEAN_MOTION":15.1309957,"ECCENTRICITY":0.000219,"INCLINATION":97.8441,"RA_OF_ASC_NODE":342.4526,"ARG_OF_PERICENTER":16.6488,"MEAN_ANOMALY":343.4814,"EPHEMERIS_TYPE":0,"NORAD_CAT_ID":59100,"ELEMENT_SET_NO":999,"REV_AT_EPOCH":11616,"BSTAR":0.00015337,"MEAN_MOTION_DOT":0.00002645,"MEAN_MOTION_DDOT":0},{"OBJECT_NAME":"ICEYE-X37","OBJECT_ID":"2024-043E","EPOCH":"2026-07-16T16:14:46.694112","CLASSIFICATION_TYPE":"U","MEAN_MOTION":15.06296299,"ECCENTRICITY":0.0013857,"INCLINATION":97.8343,"RA_OF_ASC_NODE":335.15,"ARG_OF_PERICENTER":268.7582,"MEAN_ANOMALY":91.2057,"EPHEMERIS_TYPE":0,"NORAD_CAT_ID":59102,"ELEMENT_SET_NO":999,"REV_AT_EPOCH":12952,"BSTAR":0.00012701,"MEAN_MOTION_DOT":0.00001803,"MEAN_MOTION_DDOT":0},{"OBJECT_NAME":"ICEYE-X36","OBJECT_ID":"2024-043F","EPOCH":"2026-07-16T17:30:54.683712","CLASSIFICATION_TYPE":"U","MEAN_MOTION":15.07241519,"ECCENTRICITY":0.0005423,"INCLINATION":97.8408,"RA_OF_ASC_NODE":336.3366,"ARG_OF_PERICENTER":208.0681,"MEAN_ANOMALY":152.0254,"EPHEMERIS_TYPE":0,"NORAD_CAT_ID":59103,"ELEMENT_SET_NO":999,"REV_AT_EPOCH":12959,"BSTAR":0.00017217,"MEAN_MOTION_DOT":0.00002529,"MEAN_MOTION_DDOT":0},{"OBJECT_NAME":"ICEYE-X43","OBJECT_ID":"2024-149BZ","EPOCH":"2026-07-16T15:39:51.793056","CLASSIFICATION_TYPE":"U","MEAN_MOTION":14.99788741,"ECCENTRICITY":0.0006454,"INCLINATION":97.6796,"RA_OF_ASC_NODE":274.2224,"ARG_OF_PERICENTER":341.1971,"MEAN_ANOMALY":18.9013,"EPHEMERIS_TYPE":0,"NORAD_CAT_ID":60539,"ELEMENT_SET_NO":999,"REV_AT_EPOCH":10453,"BSTAR":0.000058769,"MEAN_MOTION_DOT":0.00000668,"MEAN_MOTION_DDOT":0},{"OBJECT_NAME":"ICEYE-X39","OBJECT_ID":"2024-149CG","EPOCH":"2026-07-16T03:53:18.758688","CLASSIFICATION_TYPE":"U","MEAN_MOTION":15.00077171,"ECCENTRICITY":0.000692,"INCLINATION":97.679,"RA_OF_ASC_NODE":273.7955,"ARG_OF_PERICENTER":43.9977,"MEAN_ANOMALY":316.1796,"EPHEMERIS_TYPE":0,"NORAD_CAT_ID":60546,"ELEMENT_SET_NO":999,"REV_AT_EPOCH":10446,"BSTAR":0.00018244,"MEAN_MOTION_DOT":0.00002215,"MEAN_MOTION_DDOT":0},{"OBJECT_NAME":"ICEYE-X33","OBJECT_ID":"2024-149CJ","EPOCH":"2026-07-16T05:40:36.821856","CLASSIFICATION_TYPE":"U","MEAN_MOTION":15.008902,"ECCENTRICITY":0.0001903,"INCLINATION":97.7368,"RA_OF_ASC_NODE":276.2322,"ARG_OF_PERICENTER":73.9344,"MEAN_ANOMALY":286.209,"EPHEMERIS_TYPE":0,"NORAD_CAT_ID":60548,"ELEMENT_SET_NO":999,"REV_AT_EPOCH":10456,"BSTAR":0.00020684,"MEAN_MOTION_DOT":0.00002572,"MEAN_MOTION_DDOT":0}]}
