ICEYE-X2                
1 43800U 18099AU  26197.87273668  .00002235  00000+0  11297-3 0  9998
2 43800  97.4339 251.1940 0009951 188.6910 171.4154 15.18050609417326
ICEYE-X4                
1 44390U 19038D   26197.83205899  .00006496  00000+0  22673-3 0  9997
2 44390  97.8742 232.4993 0013045 192.2213 167.8712 15.29902893386337
ICEYE-X7                
1 46496U 20068L   26197.86353926  .00006457  00000+0  21086-3 0  9993
2 46496  97.7512 165.7546 0006185 205.8836 154.2096 15.32118599319338
ICEYE-X6                
1 46497U 20068M   26197.91859323  .00001387  00000+0  10341-3 0  9991
2 46497  98.0992 193.0160 0007084   5.6452 354.4852 15.04672595317703
ICEYE-X21               
1 55049U 23001AS  26175.21618542  .01585954  23968-5  60214-3 0  9995
2 55049  97.3001 262.6152 0012377 285.9702  74.0225 16.24069885194757
ICEYE-X25               
1 56963U 23084AH  26197.85321304  .00019108  00000+0  21262-3 0  9991
2 56963  97.5920 346.2107 0004444 180.2908 179.8348 15.62908983172607
ICEYE-X31               
1 58288U 23174AJ  26197.86699897  .00009730  00000+0  28693-3 0  9994
2 58288  97.3770 273.6164 0002880 181.3881 178.7355 15.35210269149300
ICEYE-X34               
1 58294U 23174AQ  26197.53099066  .00120276  00000+0  92712-3 0  9999
2 58294  97.3859 290.2734 0001832 213.2121 146.9027 15.71600116150344
ICEYE-X35               
1 58302U 23174AY  26197.86352564  .00037682  00000+0  55529-3 0  9993
2 58302  97.3786 283.3147 0007593 102.3146 257.8959 15.55286904149957
ICEYE-X38               
1 59100U 24043C   26197.87870749  .00002645  00000+0  15337-3 0  9991
2 59100  97.8441 342.4526 0002190  16.6488 343.4814 15.13099570116163
ICEYE-X37               
1 59102U 24043E   26197.67692933  .00001803  00000+0  12701-3 0  9995
2 59102  97.8343 335.1500 0013857 268.7582  91.2057 15.06296299129524
ICEYE-X36               
1 59103U 24043F   26197.72979958  .00002529  00000+0  17217-3 0  9990
2 59103  97.8408 336.3366 0005423 208.0681 152.0254 15.07241519129595
ICEYE-X43               
1 60539U 24149BZ  26197.65268279  .00000668  00000+0  58769-4 0  9991
2 60539  97.6796 274.2224 0006454 341.1971  18.9013 14.99788741104530
ICEYE-X39               
1 60546U 24149CG  26197.16202267  .00002215  00000+0  18244-3 0  9993
2 60546  97.6790 273.7955 0006920  43.9977 316.1796 15.00077171104462
ICEYE-X33               
1 60548U 24149CJ  26197.23653729  .00002572  00000+0  20684-3 0  9993
2 60548  97.7368 276.2322 0001903  73.9344 286.2090 15.00890200104560
